SAOCOM 1A
1 43641U 18076A   26110.61705330  .00000669  00000+0  90548-4 0  9995
2 43641  97.8893 298.1975 0001526  91.9205 268.2183 14.82150956407579
SAOCOM 1B
1 46265U 20059A   26110.58076478 -.00000255  00000+0 -25510-4 0  9994
2 46265  97.8886 297.2560 0001573  84.3989 275.7403 14.82140089304955
CSS (TIANHE)
1 48274U 21035A   26110.34681916  .00018569  00000+0  20498-3 0  9998
2 48274  41.4648 314.3083 0006487 240.5920 119.4272 15.62604461284121
COSMOS 2550
1 48865U 21056A   26110.57620927 -.00000201  00000+0 -27058-6 0  9995
2 48865  67.1423 274.1769 0008469 269.3687  90.6497 15.33829515269880
XRISM
1 57800U 23137A   26110.43539008  .00004019  00000+0  22311-3 0  9993
2 57800  31.0035  13.5479 0007499 100.2123 259.9361 15.11949409144110
ACS3
1 59588U 24077B   26110.37397309  .00005094  00000+0  39684-2 0  9995
2 59588  97.1870  42.1239 0067721 352.9609   7.0598 13.91543022 99992
HTV-X1
1 66174U 25241A   26109.66693346  .00005975  00000+0  19778-3 0  9999
2 66174  51.6366 235.4531 0007673 331.4211  28.6349 15.32697623 27223
H-2A R/B
1 43682U 18084L   26110.19191476  .00014788  00000+0  33448-3 0  9994
2 43682  98.8652 336.4979 0023121 236.9914 122.9107 15.43019873412175
CZ-2C R/B
1 52794U 22058K   26110.45236432  .00035635  00000+0  46560-3 0  9998
2 52794  50.1861 102.9413 0039701  19.5452 340.7031 15.57313469216636
CZ-2C R/B
1 54039U 22132E   26110.28371161  .00033113  00000+0  32743-3 0  9992
2 54039  97.2939 114.9896 0013047 297.4308  62.5625 15.65703732196874
GSLV R/B
1 54149U 22138AN  26110.36812684  .00001401  00000+0  11877-3 0  9999
2 54149  87.3825 152.3997 0021479   7.4517 352.7029 14.97004201190164
SZ-21 MODULE
1 66515U 25246C   26109.84223800  .00036207  00000+0  27285-3 0  9991
2 66515  41.4737 309.4069 0004429 295.2816  64.7567 15.71748286 24543
