[{"OBJECT_NAME":"SAOCOM 1A","OBJECT_ID":"2018-076A","EPOCH":"2026-04-20T14:48:33.405120","MEAN_MOTION":14.82150956,"ECCENTRICITY":0.00015266,"INCLINATION":97.8893,"RA_OF_ASC_NODE":298.1975,"ARG_OF_PERICENTER":91.9205,"MEAN_ANOMALY":268.2183,"EPHEMERIS_TYPE":0,"CLASSIFICATION_TYPE":"U","NORAD_CAT_ID":43641,"ELEMENT_SET_NO":999,"REV_AT_EPOCH":40757,"BSTAR":9.0547631e-5,"MEAN_MOTION_DOT":6.69e-6,"MEAN_MOTION_DDOT":0},{"OBJECT_NAME":"H-2A R/B","OBJECT_ID":"2018-084L","EPOCH":"2026-04-20T04:36:21.435264","MEAN_MOTION":15.43019873,"ECCENTRICITY":0.00231213,"INCLINATION":98.8652,"RA_OF_ASC_NODE":336.4979,"ARG_OF_PERICENTER":236.9914,"MEAN_ANOMALY":122.9107,"EPHEMERIS_TYPE":0,"CLASSIFICATION_TYPE":"U","NORAD_CAT_ID":43682,"ELEMENT_SET_NO":999,"REV_AT_EPOCH":41217,"BSTAR":0.00033448274,"MEAN_MOTION_DOT":0.00014788,"MEAN_MOTION_DDOT":0},{"OBJECT_NAME":"SAOCOM 1B","OBJECT_ID":"2020-059A","EPOCH":"2026-04-20T13:56:18.076992","MEAN_MOTION":14.82140089,"ECCENTRICITY":0.00015737,"INCLINATION":97.8886,"RA_OF_ASC_NODE":297.256,"ARG_OF_PERICENTER":84.3989,"MEAN_ANOMALY":275.7403,"EPHEMERIS_TYPE":0,"CLASSIFICATION_TYPE":"U","NORAD_CAT_ID":46265,"ELEMENT_SET_NO":999,"REV_AT_EPOCH":30495,"BSTAR":-2.5509773e-5,"MEAN_MOTION_DOT":-2.55e-6,"MEAN_MOTION_DDOT":0},{"OBJECT_NAME":"CSS (TIANHE)","OBJECT_ID":"2021-035A","EPOCH":"2026-04-20T08:19:25.175424","MEAN_MOTION":15.62604461,"ECCENTRICITY":0.00064876,"INCLINATION":41.4648,"RA_OF_ASC_NODE":314.3083,"ARG_OF_PERICENTER":240.592,"MEAN_ANOMALY":119.4272,"EPHEMERIS_TYPE":0,"CLASSIFICATION_TYPE":"U","NORAD_CAT_ID":48274,"ELEMENT_SET_NO":999,"REV_AT_EPOCH":28412,"BSTAR":0.00020497991,"MEAN_MOTION_DOT":0.00018569,"MEAN_MOTION_DDOT":0},{"OBJECT_NAME":"COSMOS 2550","OBJECT_ID":"2021-056A","EPOCH":"2026-04-20T13:49:44.480928","MEAN_MOTION":15.33829515,"ECCENTRICITY":0.00084695,"INCLINATION":67.1423,"RA_OF_ASC_NODE":274.1769,"ARG_OF_PERICENTER":269.3687,"MEAN_ANOMALY":90.6497,"EPHEMERIS_TYPE":0,"CLASSIFICATION_TYPE":"U","NORAD_CAT_ID":48865,"ELEMENT_SET_NO":999,"REV_AT_EPOCH":26988,"BSTAR":-2.70583e-7,"MEAN_MOTION_DOT":-2.01e-6,"MEAN_MOTION_DDOT":0},{"OBJECT_NAME":"CZ-2C R/B","OBJECT_ID":"2022-058K","EPOCH":"2026-04-20T10:51:24.277248","MEAN_MOTION":15.57313469,"ECCENTRICITY":0.0039701,"INCLINATION":50.1861,"RA_OF_ASC_NODE":102.9413,"ARG_OF_PERICENTER":19.5452,"MEAN_ANOMALY":340.7031,"EPHEMERIS_TYPE":0,"CLASSIFICATION_TYPE":"U","NORAD_CAT_ID":52794,"ELEMENT_SET_NO":999,"REV_AT_EPOCH":21663,"BSTAR":0.00046559668,"MEAN_MOTION_DOT":0.00035635,"MEAN_MOTION_DDOT":0},{"OBJECT_NAME":"CZ-2C R/B","OBJECT_ID":"2022-132E","EPOCH":"2026-04-20T06:48:32.683104","MEAN_MOTION":15.65703732,"ECCENTRICITY":0.0013047,"INCLINATION":97.2939,"RA_OF_ASC_NODE":114.9896,"ARG_OF_PERICENTER":297.4308,"MEAN_ANOMALY":62.5625,"EPHEMERIS_TYPE":0,"CLASSIFICATION_TYPE":"U","NORAD_CAT_ID":54039,"ELEMENT_SET_NO":999,"REV_AT_EPOCH":19687,"BSTAR":0.00032743,"MEAN_MOTION_DOT":0.00033113,"MEAN_MOTION_DDOT":0},{"OBJECT_NAME":"GSLV R/B","OBJECT_ID":"2022-138AN","EPOCH":"2026-04-20T08:50:06.158976","MEAN_MOTION":14.97004201,"ECCENTRICITY":0.00214793,"INCLINATION":87.3825,"RA_OF_ASC_NODE":152.3997,"ARG_OF_PERICENTER":7.4517,"MEAN_ANOMALY":352.7029,"EPHEMERIS_TYPE":0,"CLASSIFICATION_TYPE":"U","NORAD_CAT_ID":54149,"ELEMENT_SET_NO":999,"REV_AT_EPOCH":19016,"BSTAR":0.00011877193,"MEAN_MOTION_DOT":1.401e-5,"MEAN_MOTION_DDOT":0},{"OBJECT_NAME":"XRISM","OBJECT_ID":"2023-137A","EPOCH":"2026-04-20T10:26:57.702912","MEAN_MOTION":15.11949409,"ECCENTRICITY":0.00074996,"INCLINATION":31.0035,"RA_OF_ASC_NODE":13.5479,"ARG_OF_PERICENTER":100.2123,"MEAN_ANOMALY":259.9361,"EPHEMERIS_TYPE":0,"CLASSIFICATION_TYPE":"U","NORAD_CAT_ID":57800,"ELEMENT_SET_NO":999,"REV_AT_EPOCH":14411,"BSTAR":0.00022310818,"MEAN_MOTION_DOT":4.019e-5,"MEAN_MOTION_DDOT":0},{"OBJECT_NAME":"ACS3","OBJECT_ID":"2024-077B","EPOCH":"2026-04-20T08:58:31.274976","MEAN_MOTION":13.91543022,"ECCENTRICITY":0.00677212,"INCLINATION":97.187,"RA_OF_ASC_NODE":42.1239,"ARG_OF_PERICENTER":352.9609,"MEAN_ANOMALY":7.0598,"EPHEMERIS_TYPE":0,"CLASSIFICATION_TYPE":"U","NORAD_CAT_ID":59588,"ELEMENT_SET_NO":999,"REV_AT_EPOCH":9999,"BSTAR":0.0039684023,"MEAN_MOTION_DOT":5.094e-5,"MEAN_MOTION_DDOT":0},{"OBJECT_NAME":"HTV-X1","OBJECT_ID":"2025-241A","EPOCH":"2026-04-19T16:00:23.050944","MEAN_MOTION":15.32697623,"ECCENTRICITY":0.00076736,"INCLINATION":51.6366,"RA_OF_ASC_NODE":235.4531,"ARG_OF_PERICENTER":331.4211,"MEAN_ANOMALY":28.6349,"EPHEMERIS_TYPE":0,"CLASSIFICATION_TYPE":"U","NORAD_CAT_ID":66174,"ELEMENT_SET_NO":999,"REV_AT_EPOCH":2722,"BSTAR":0.00019777608,"MEAN_MOTION_DOT":5.975e-5,"MEAN_MOTION_DDOT":0},{"OBJECT_NAME":"SZ-21 MODULE","OBJECT_ID":"2025-246C","EPOCH":"2026-04-19T20:12:49.363200","MEAN_MOTION":15.71748286,"ECCENTRICITY":0.00044295,"INCLINATION":41.4737,"RA_OF_ASC_NODE":309.4069,"ARG_OF_PERICENTER":295.2816,"MEAN_ANOMALY":64.7567,"EPHEMERIS_TYPE":0,"CLASSIFICATION_TYPE":"U","NORAD_CAT_ID":66515,"ELEMENT_SET_NO":999,"REV_AT_EPOCH":2454,"BSTAR":0.00027285201,"MEAN_MOTION_DOT":0.00036207,"MEAN_MOTION_DDOT":0}]
